{
  "type": "FeatureCollection",
  "features": [
    {
      "type": "Feature",
      "properties": {
        "norad_id": 26766,
        "name": "INTELSAT 10 (IS-10)",
        "group": "intelsat",
        "lat": -1.5781854131276525,
        "lon": -108.61637424374466,
        "alt_km": 36099.271822188595,
        "timestamp": "2025-12-20T03:42:47.059452+00:00",
        "meta_object_name": "INTELSAT 10 (IS-10)",
        "meta_object_id": "2001-019A",
        "meta_epoch": "2025-12-19T15:29:42.245376",
        "meta_mean_motion": 0.99074952,
        "meta_eccentricity": 0.0007763,
        "meta_inclination": 8.645,
        "meta_ra_of_asc_node": 61.0876,
        "meta_arg_of_pericenter": 228.9364,
        "meta_mean_anomaly": 139.953,
        "meta_ephemeris_type": 0,
        "meta_classification_type": "U",
        "meta_norad_cat_id": 26766,
        "meta_element_set_no": 999,
        "meta_rev_at_epoch": 4380,
        "meta_bstar": 0,
        "meta_mean_motion_dot": -1.33e-06,
        "meta_mean_motion_ddot": 0,
        "tle_line1": "1 26766U 01019A   25353.64562784 -.00000133  00000+0  00000+0 0  9994",
        "tle_line2": "2 26766   8.6450  61.0876 0007763 228.9364 139.9530  0.99074952 43807"
      },
      "geometry": {
        "type": "Point",
        "coordinates": [
          -108.61637424374466,
          -1.5781854131276525
        ]
      }
    },
    {
      "type": "Feature",
      "properties": {
        "norad_id": 26900,
        "name": "INTELSAT 902 (IS-902)",
        "group": "intelsat",
        "lat": 2.012997507929905,
        "lon": 94.44670622091071,
        "alt_km": 35805.331895717434,
        "timestamp": "2025-12-20T03:42:47.059475+00:00",
        "meta_object_name": "INTELSAT 902 (IS-902)",
        "meta_object_id": "2001-039A",
        "meta_epoch": "2025-12-15T13:09:02.081664",
        "meta_mean_motion": 1.0027087,
        "meta_eccentricity": 0.00045028,
        "meta_inclination": 5.6536,
        "meta_ra_of_asc_node": 74.0372,
        "meta_arg_of_pericenter": 189.6359,
        "meta_mean_anomaly": 327.9329,
        "meta_ephemeris_type": 0,
        "meta_classification_type": "U",
        "meta_norad_cat_id": 26900,
        "meta_element_set_no": 999,
        "meta_rev_at_epoch": 8885,
        "meta_bstar": 0,
        "meta_mean_motion_dot": -2.65e-06,
        "meta_mean_motion_ddot": 0,
        "tle_line1": "1 26900U 01039A   25349.54794076 -.00000265  00000+0  00000+0 0  9997",
        "tle_line2": "2 26900   5.6536  74.0372 0004502 189.6359 327.9329  1.00270870 88858"
      },
      "geometry": {
        "type": "Point",
        "coordinates": [
          94.44670622091071,
          2.012997507929905
        ]
      }
    },
    {
      "type": "Feature",
      "properties": {
        "norad_id": 27380,
        "name": "INTELSAT 904 (IS-904)",
        "group": "intelsat",
        "lat": 4.337728605680467,
        "lon": 113.00885644306962,
        "alt_km": 35792.39494419712,
        "timestamp": "2025-12-20T03:42:47.059491+00:00",
        "meta_object_name": "INTELSAT 904 (IS-904)",
        "meta_object_id": "2002-007A",
        "meta_epoch": "2025-12-19T07:35:21.663744",
        "meta_mean_motion": 1.00271333,
        "meta_eccentricity": 0.0001748,
        "meta_inclination": 6.4701,
        "meta_ra_of_asc_node": 71.3572,
        "meta_arg_of_pericenter": 247.0731,
        "meta_mean_anomaly": 212.076,
        "meta_ephemeris_type": 0,
        "meta_classification_type": "U",
        "meta_norad_cat_id": 27380,
        "meta_element_set_no": 999,
        "meta_rev_at_epoch": 4996,
        "meta_bstar": 0,
        "meta_mean_motion_dot": -2.07e-06,
        "meta_mean_motion_ddot": 0,
        "tle_line1": "1 27380U 02007A   25353.31622296 -.00000207  00000+0  00000+0 0  9996",
        "tle_line2": "2 27380   6.4701  71.3572 0001748 247.0731 212.0760  1.00271333 49965"
      },
      "geometry": {
        "type": "Point",
        "coordinates": [
          113.00885644306962,
          4.337728605680467
        ]
      }
    },
    {
      "type": "Feature",
      "properties": {
        "norad_id": 27426,
        "name": "DIRECTV 5 (TEMPO 1)",
        "group": "intelsat",
        "lat": -2.996373257469543,
        "lon": 34.69949921735955,
        "alt_km": 35790.93186006678,
        "timestamp": "2025-12-20T03:42:47.059504+00:00",
        "meta_object_name": "DIRECTV 5 (TEMPO 1)",
        "meta_object_id": "2002-023A",
        "meta_epoch": "2025-12-19T10:22:10.435008",
        "meta_mean_motion": 1.00272782,
        "meta_eccentricity": 0.0003429,
        "meta_inclination": 4.4182,
        "meta_ra_of_asc_node": 77.5755,
        "meta_arg_of_pericenter": 208.1264,
        "meta_mean_anomaly": 208.0122,
        "meta_ephemeris_type": 0,
        "meta_classification_type": "U",
        "meta_norad_cat_id": 27426,
        "meta_element_set_no": 999,
        "meta_rev_at_epoch": 8632,
        "meta_bstar": 0,
        "meta_mean_motion_dot": -3.6e-07,
        "meta_mean_motion_ddot": 0,
        "tle_line1": "1 27426U 02023A   25353.43206522 -.00000036  00000+0  00000+0 0  9998",
        "tle_line2": "2 27426   4.4182  77.5755 0003429 208.1264 208.0122  1.00272782 86322"
      },
      "geometry": {
        "type": "Point",
        "coordinates": [
          34.69949921735955,
          -2.996373257469543
        ]
      }
    },
    {
      "type": "Feature",
      "properties": {
        "norad_id": 27438,
        "name": "INTELSAT 905 (IS-905)",
        "group": "intelsat",
        "lat": -5.68571519163453,
        "lon": 7.644014314558475,
        "alt_km": 35787.68338063636,
        "timestamp": "2025-12-20T03:42:47.059516+00:00",
        "meta_object_name": "INTELSAT 905 (IS-905)",
        "meta_object_id": "2002-027A",
        "meta_epoch": "2025-12-19T10:59:37.315392",
        "meta_mean_motion": 1.00272292,
        "meta_eccentricity": 0.0002646,
        "meta_inclination": 6.3015,
        "meta_ra_of_asc_node": 71.9788,
        "meta_arg_of_pericenter": 200.1075,
        "meta_mean_anomaly": 203.9148,
        "meta_ephemeris_type": 0,
        "meta_classification_type": "U",
        "meta_norad_cat_id": 27438,
        "meta_element_set_no": 999,
        "meta_rev_at_epoch": 4956,
        "meta_bstar": 0,
        "meta_mean_motion_dot": 1.13e-06,
        "meta_mean_motion_ddot": 0,
        "tle_line1": "1 27438U 02027A   25353.45807078  .00000113  00000+0  00000+0 0  9995",
        "tle_line2": "2 27438   6.3015  71.9788 0002646 200.1075 203.9148  1.00272292 49560"
      },
      "geometry": {
        "type": "Point",
        "coordinates": [
          7.644014314558475,
          -5.68571519163453
        ]
      }
    },
    {
      "type": "Feature",
      "properties": {
        "norad_id": 27445,
        "name": "GALAXY 3C (G-3C)",
        "group": "intelsat",
        "lat": -1.6501898198034373,
        "lon": 49.851701613596695,
        "alt_km": 35787.82708004008,
        "timestamp": "2025-12-20T03:42:47.059528+00:00",
        "meta_object_name": "GALAXY 3C (G-3C)",
        "meta_object_id": "2002-030A",
        "meta_epoch": "2025-12-19T11:26:15.049248",
        "meta_mean_motion": 1.00271927,
        "meta_eccentricity": 0.0001143,
        "meta_inclination": 3.2798,
        "meta_ra_of_asc_node": 80.4379,
        "meta_arg_of_pericenter": 78.2658,
        "meta_mean_anomaly": 6.3233,
        "meta_ephemeris_type": 0,
        "meta_classification_type": "U",
        "meta_norad_cat_id": 27445,
        "meta_element_set_no": 999,
        "meta_rev_at_epoch": 4469,
        "meta_bstar": 0,
        "meta_mean_motion_dot": -1.31e-06,
        "meta_mean_motion_ddot": 0,
        "tle_line1": "1 27445U 02030A   25353.47656307 -.00000131  00000+0  00000+0 0  9997",
        "tle_line2": "2 27445   3.2798  80.4379 0001143  78.2658   6.3233  1.00271927 44698"
      },
      "geometry": {
        "type": "Point",
        "coordinates": [
          49.851701613596695,
          -1.6501898198034373
        ]
      }
    },
    {
      "type": "Feature",
      "properties": {
        "norad_id": 27513,
        "name": "INTELSAT 906 (IS-906)",
        "group": "intelsat",
        "lat": 3.8596370941634794,
        "lon": -151.1231880163292,
        "alt_km": 35773.85970502354,
        "timestamp": "2025-12-20T03:42:47.059540+00:00",
        "meta_object_name": "INTELSAT 906 (IS-906)",
        "meta_object_id": "2002-041A",
        "meta_epoch": "2025-12-19T20:34:46.616736",
        "meta_mean_motion": 1.00272721,
        "meta_eccentricity": 0.0006318,
        "meta_inclination": 5.3475,
        "meta_ra_of_asc_node": 75.1475,
        "meta_arg_of_pericenter": 198.3862,
        "meta_mean_anomaly": 187.9891,
        "meta_ephemeris_type": 0,
        "meta_classification_type": "U",
        "meta_norad_cat_id": 27513,
        "meta_element_set_no": 999,
        "meta_rev_at_epoch": 8523,
        "meta_bstar": 0,
        "meta_mean_motion_dot": 3.3e-07,
        "meta_mean_motion_ddot": 0,
        "tle_line1": "1 27513U 02041A   25353.85748399  .00000033  00000+0  00000+0 0  9990",
        "tle_line2": "2 27513   5.3475  75.1475 0006318 198.3862 187.9891  1.00272721 85231"
      },
      "geometry": {
        "type": "Point",
        "coordinates": [
          -151.1231880163292,
          3.8596370941634794
        ]
      }
    }
  ]
}